{"type": "FeatureCollection", "features": [{"type": "Feature", "properties": {"norad_id": 28054, "name": "DMSP 5D-3 F16 (USA 172)", "group": "weather", "lat": -74.0498991955479, "lon": 155.7040505173788, "alt_km": 848.4648242943213, "timestamp": "2025-12-17T21:39:45.355000+00:00", "meta": {"OBJECT_NAME": "DMSP 5D-3 F16 (USA 172)", "OBJECT_ID": "2003-048A", "EPOCH": "2025-12-17T15:52:11.898048", "MEAN_MOTION": 14.14426076, "ECCENTRICITY": 0.00063476, "INCLINATION": 99.0042, "RA_OF_ASC_NODE": 9.1569, "ARG_OF_PERICENTER": 305.2658, "MEAN_ANOMALY": 163.2385, "EPHEMERIS_TYPE": 0, "CLASSIFICATION_TYPE": "U", "NORAD_CAT_ID": 28054, "ELEMENT_SET_NO": 999, "REV_AT_EPOCH": 14382, "BSTAR": 8.0902423e-05, "MEAN_MOTION_DOT": 1.09e-06, "MEAN_MOTION_DDOT": 0}, "tle": {"line1": "1 28054U 03048A   25351.66124882  .00000109  00000+0  80902-4 0  9999", "line2": "2 28054  99.0042   9.1569 0006347 305.2658 163.2385 14.14426076143825"}}, "geometry": {"type": "Point", "coordinates": [155.7040505173788, -74.0498991955479]}}, {"type": "Feature", "properties": {"norad_id": 28912, "name": "METEOSAT-9 (MSG-2)", "group": "weather", "lat": 5.944783631389243, "lon": 97.12236865365932, "alt_km": 35795.59884943264, "timestamp": "2025-12-17T21:39:45.355051+00:00", "meta": {"OBJECT_NAME": "METEOSAT-9 (MSG-2)", "OBJECT_ID": "2005-049B", "EPOCH": "2025-12-16T20:25:21.138240", "MEAN_MOTION": 1.00278778, "ECCENTRICITY": 0.00033903, "INCLINATION": 8.9483, "RA_OF_ASC_NODE": 55.9385, "ARG_OF_PERICENTER": 190.7739, "MEAN_ANOMALY": 191.1196, "EPHEMERIS_TYPE": 0, "CLASSIFICATION_TYPE": "U", "NORAD_CAT_ID": 28912, "ELEMENT_SET_NO": 999, "REV_AT_EPOCH": 517, "BSTAR": 0, "MEAN_MOTION_DOT": 1.4e-06, "MEAN_MOTION_DDOT": 0}, "tle": {"line1": "1 28912U 05049B   25350.85093910  .00000140  00000+0  00000+0 0  9993", "line2": "2 28912   8.9483  55.9385 0003390 190.7739 191.1196  1.00278778  5173"}}, "geometry": {"type": "Point", "coordinates": [97.12236865365932, 5.944783631389243]}}, {"type": "Feature", "properties": {"norad_id": 29522, "name": "DMSP 5D-3 F17 (USA 191)", "group": "weather", "lat": -26.043217006036677, "lon": 172.87348468203305, "alt_km": 841.265125826606, "timestamp": "2025-12-17T21:39:45.355066+00:00", "meta": {"OBJECT_NAME": "DMSP 5D-3 F17 (USA 191)", "OBJECT_ID": "2006-050A", "EPOCH": "2025-12-17T13:54:06.632352", "MEAN_MOTION": 14.14921695, "ECCENTRICITY": 0.00095924, "INCLINATION": 98.7391, "RA_OF_ASC_NODE": 356.8676, "ARG_OF_PERICENTER": 210.1798, "MEAN_ANOMALY": 149.8824, "EPHEMERIS_TYPE": 0, "CLASSIFICATION_TYPE": "U", "NORAD_CAT_ID": 29522, "ELEMENT_SET_NO": 999, "REV_AT_EPOCH": 98673, "BSTAR": 9.8078561e-05, "MEAN_MOTION_DOT": 1.46e-06, "MEAN_MOTION_DDOT": 0}, "tle": {"line1": "1 29522U 06050A   25351.57924343  .00000146  00000+0  98079-4 0  9991", "line2": "2 29522  98.7391 356.8676 0009592 210.1798 149.8824 14.14921695986734"}}, "geometry": {"type": "Point", "coordinates": [172.87348468203305, -26.043217006036677]}}, {"type": "Feature", "properties": {"norad_id": 32958, "name": "FENGYUN 3A", "group": "weather", "lat": 5.446917612597582, "lon": -69.51305139341828, "alt_km": 827.3916566662328, "timestamp": "2025-12-17T21:39:45.355079+00:00", "meta": {"OBJECT_NAME": "FENGYUN 3A", "OBJECT_ID": "2008-026A", "EPOCH": "2025-12-17T09:47:42.134784", "MEAN_MOTION": 14.19516118, "ECCENTRICITY": 0.00077413, "INCLINATION": 98.6701, "RA_OF_ASC_NODE": 290.8366, "ARG_OF_PERICENTER": 295.5616, "MEAN_ANOMALY": 64.476, "EPHEMERIS_TYPE": 0, "CLASSIFICATION_TYPE": "U", "NORAD_CAT_ID": 32958, "ELEMENT_SET_NO": 999, "REV_AT_EPOCH": 90961, "BSTAR": 5.6035575e-05, "MEAN_MOTION_DOT": 7.5e-07, "MEAN_MOTION_DDOT": 0}, "tle": {"line1": "1 32958U 08026A   25351.40812656  .00000075  00000+0  56036-4 0  9996", "line2": "2 32958  98.6701 290.8366 0007741 295.5616  64.4760 14.19516118909616"}}, "geometry": {"type": "Point", "coordinates": [-69.51305139341828, 5.446917612597582]}}, {"type": "Feature", "properties": {"norad_id": 35491, "name": "GOES 14", "group": "weather", "lat": -0.687854070703384, "lon": -61.315227456576295, "alt_km": 35833.555080260594, "timestamp": "2025-12-17T21:39:45.355092+00:00", "meta": {"OBJECT_NAME": "GOES 14", "OBJECT_ID": "2009-033A", "EPOCH": "2025-12-17T12:06:06.534720", "MEAN_MOTION": 1.00096698, "ECCENTRICITY": 5.34e-05, "INCLINATION": 1.2148, "RA_OF_ASC_NODE": 85.3519, "ARG_OF_PERICENTER": 174.4366, "MEAN_ANOMALY": 255.3546, "EPHEMERIS_TYPE": 0, "CLASSIFICATION_TYPE": "U", "NORAD_CAT_ID": 35491, "ELEMENT_SET_NO": 999, "REV_AT_EPOCH": 477, "BSTAR": 0, "MEAN_MOTION_DOT": 1e-07, "MEAN_MOTION_DDOT": 0}, "tle": {"line1": "1 35491U 09033A   25351.50424230  .00000010  00000+0  00000+0 0  9992", "line2": "2 35491   1.2148  85.3519 0000534 174.4366 255.3546  1.00096698  4771"}}, "geometry": {"type": "Point", "coordinates": [-61.315227456576295, -0.687854070703384]}}, {"type": "Feature", "properties": {"norad_id": 35951, "name": "DMSP 5D-3 F18 (USA 210)", "group": "weather", "lat": 69.06191756804624, "lon": -55.849899313423705, "alt_km": 828.328052968961, "timestamp": "2025-12-17T21:39:45.355102+00:00", "meta": {"OBJECT_NAME": "DMSP 5D-3 F18 (USA 210)", "OBJECT_ID": "2009-057A", "EPOCH": "2025-12-17T12:50:32.902656", "MEAN_MOTION": 14.14772409, "ECCENTRICITY": 0.00119577, "INCLINATION": 98.8838, "RA_OF_ASC_NODE": 327.912, "ARG_OF_PERICENTER": 50.179, "MEAN_ANOMALY": 310.0434, "EPHEMERIS_TYPE": 0, "CLASSIFICATION_TYPE": "U", "NORAD_CAT_ID": 35951, "ELEMENT_SET_NO": 999, "REV_AT_EPOCH": 83390, "BSTAR": 0.00015606447, "MEAN_MOTION_DOT": 2.56e-06, "MEAN_MOTION_DDOT": 0}, "tle": {"line1": "1 35951U 09057A   25351.53510304  .00000256  00000+0  15606-3 0  9994", "line2": "2 35951  98.8838 327.9120 0011957  50.1790 310.0434 14.14772409833905"}}, "geometry": {"type": "Point", "coordinates": [-55.849899313423705, 69.06191756804624]}}, {"type": "Feature", "properties": {"norad_id": 36411, "name": "EWS-G2 (GOES 15)", "group": "weather", "lat": 0.3957801465419284, "lon": 113.04198481194206, "alt_km": 35806.39886243485, "timestamp": "2025-12-17T21:39:45.355114+00:00", "meta": {"OBJECT_NAME": "EWS-G2 (GOES 15)", "OBJECT_ID": "2010-008A", "EPOCH": "2025-12-17T15:07:16.805568", "MEAN_MOTION": 1.00270754, "ECCENTRICITY": 0.00054896, "INCLINATION": 0.8255, "RA_OF_ASC_NODE": 86.0725, "ARG_OF_PERICENTER": 176.7321, "MEAN_ANOMALY": 111.8959, "EPHEMERIS_TYPE": 0, "CLASSIFICATION_TYPE": "U", "NORAD_CAT_ID": 36411, "ELEMENT_SET_NO": 999, "REV_AT_EPOCH": 5781, "BSTAR": 0, "MEAN_MOTION_DOT": 6.2e-07, "MEAN_MOTION_DDOT": 0}, "tle": {"line1": "1 36411U 10008A   25351.63005562  .00000062  00000+0  00000+0 0  9993", "line2": "2 36411   0.8255  86.0725 0005489 176.7321 111.8959  1.00270754 57819"}}, "geometry": {"type": "Point", "coordinates": [113.04198481194206, 0.3957801465419284]}}, {"type": "Feature", "properties": {"norad_id": 36744, "name": "COMS 1", "group": "weather", "lat": 4.255473454030602, "lon": 179.9012623600348, "alt_km": 35786.51521699321, "timestamp": "2025-12-17T21:39:45.355125+00:00", "meta": {"OBJECT_NAME": "COMS 1", "OBJECT_ID": "2010-032A", "EPOCH": "2025-12-17T13:56:11.537376", "MEAN_MOTION": 1.00271242, "ECCENTRICITY": 7.676e-05, "INCLINATION": 4.352, "RA_OF_ASC_NODE": 77.9436, "ARG_OF_PERICENTER": 206.0986, "MEAN_ANOMALY": 139.6306, "EPHEMERIS_TYPE": 0, "CLASSIFICATION_TYPE": "U", "NORAD_CAT_ID": 36744, "ELEMENT_SET_NO": 999, "REV_AT_EPOCH": 4926, "BSTAR": 0, "MEAN_MOTION_DOT": -3.23e-06, "MEAN_MOTION_DDOT": 0}, "tle": {"line1": "1 36744U 10032A   25351.58068909 -.00000323  00000+0  00000+0 0  9998", "line2": "2 36744   4.3520  77.9436 0000767 206.0986 139.6306  1.00271242 49265"}}, "geometry": {"type": "Point", "coordinates": [179.9012623600348, 4.255473454030602]}}, {"type": "Feature", "properties": {"norad_id": 37214, "name": "FENGYUN 3B", "group": "weather", "lat": 35.513804151376654, "lon": 25.42879169525884, "alt_km": 831.0432048886505, "timestamp": "2025-12-17T21:39:45.355135+00:00", "meta": {"OBJECT_NAME": "FENGYUN 3B", "OBJECT_ID": "2010-059A", "EPOCH": "2025-12-17T15:27:28.696896", "MEAN_MOTION": 14.14791426, "ECCENTRICITY": 0.00218313, "INCLINATION": 98.9907, "RA_OF_ASC_NODE": 31.6559, "ARG_OF_PERICENTER": 343.8098, "MEAN_ANOMALY": 176.0985, "EPHEMERIS_TYPE": 0, "CLASSIFICATION_TYPE": "U", "NORAD_CAT_ID": 37214, "ELEMENT_SET_NO": 999, "REV_AT_EPOCH": 78175, "BSTAR": 0.00018895556, "MEAN_MOTION_DOT": 3.2e-06, "MEAN_MOTION_DDOT": 0}, "tle": {"line1": "1 37214U 10059A   25351.64408214  .00000320  00000+0  18896-3 0  9996", "line2": "2 37214  98.9907  31.6559 0021831 343.8098 176.0985 14.14791426781753"}}, "geometry": {"type": "Point", "coordinates": [25.42879169525884, 35.513804151376654]}}, {"type": "Feature", "properties": {"norad_id": 37849, "name": "SUOMI NPP", "group": "weather", "lat": -35.319086159576045, "lon": -64.51707445356902, "alt_km": 834.6416999105941, "timestamp": "2025-12-17T21:39:45.355145+00:00", "meta": {"OBJECT_NAME": "SUOMI NPP", "OBJECT_ID": "2011-061A", "EPOCH": "2025-12-17T15:03:51.441408", "MEAN_MOTION": 14.19515602, "ECCENTRICITY": 0.00023812, "INCLINATION": 98.7779, "RA_OF_ASC_NODE": 288.9253, "ARG_OF_PERICENTER": 111.6833, "MEAN_ANOMALY": 248.4597, "EPHEMERIS_TYPE": 0, "CLASSIFICATION_TYPE": "U", "NORAD_CAT_ID": 37849, "ELEMENT_SET_NO": 999, "REV_AT_EPOCH": 73268, "BSTAR": 5.3617906e-05, "MEAN_MOTION_DOT": 6.9e-07, "MEAN_MOTION_DDOT": 0}, "tle": {"line1": "1 37849U 11061A   25351.62767872  .00000069  00000+0  53618-4 0  9992", "line2": "2 37849  98.7779 288.9253 0002381 111.6833 248.4597 14.19515602732683"}}, "geometry": {"type": "Point", "coordinates": [-64.51707445356902, -35.319086159576045]}}]}